{
  "type": "FeatureCollection",
  "features": [
    {
      "type": "Feature",
      "properties": {
        "norad_id": 64751,
        "name": "PROGRESS-MS 31",
        "group": "stations",
        "lat": -9.494784524560556,
        "lon": -75.08219877769444,
        "alt_km": 419.4835226549658,
        "timestamp": "2025-12-21T20:41:06.789631+00:00",
        "meta_object_name": "PROGRESS-MS 31",
        "meta_object_id": "2025-146A",
        "meta_epoch": "2025-12-21T13:40:08.668128",
        "meta_mean_motion": 15.49703708,
        "meta_eccentricity": 0.00031656,
        "meta_inclination": 51.6324,
        "meta_ra_of_asc_node": 98.7522,
        "meta_arg_of_pericenter": 281.5679,
        "meta_mean_anomaly": 78.4955,
        "meta_ephemeris_type": 0,
        "meta_classification_type": "U",
        "meta_norad_cat_id": 64751,
        "meta_element_set_no": 999,
        "meta_rev_at_epoch": 675,
        "meta_bstar": 0.0001683656,
        "meta_mean_motion_dot": 9.066e-05,
        "meta_mean_motion_ddot": 0,
        "tle_line1": "1 64751U 25146A   25355.56954477  .00009066  00000+0  16837-3 0  9996",
        "tle_line2": "2 64751  51.6324  98.7522 0003165 281.5679  78.4955 15.49703708  6752"
      },
      "geometry": {
        "type": "Point",
        "coordinates": [
          -75.08219877769444,
          -9.494784524560556
        ]
      }
    },
    {
      "type": "Feature",
      "properties": {
        "norad_id": 64786,
        "name": "TIANZHOU-9",
        "group": "stations",
        "lat": -36.115517667737976,
        "lon": -94.39895207765692,
        "alt_km": 397.08630439375065,
        "timestamp": "2025-12-21T20:41:06.789641+00:00",
        "meta_object_name": "TIANZHOU-9",
        "meta_object_id": "2025-149A",
        "meta_epoch": "2025-12-21T13:16:11.322912",
        "meta_mean_motion": 15.59533817,
        "meta_eccentricity": 0.0007788,
        "meta_inclination": 41.4687,
        "meta_ra_of_asc_node": 323.1886,
        "meta_arg_of_pericenter": 108.2472,
        "meta_mean_anomaly": 251.9215,
        "meta_ephemeris_type": 0,
        "meta_classification_type": "U",
        "meta_norad_cat_id": 64786,
        "meta_element_set_no": 999,
        "meta_rev_at_epoch": 25530,
        "meta_bstar": 0.00020086225,
        "meta_mean_motion_dot": 0.00016128,
        "meta_mean_motion_ddot": 0,
        "tle_line1": "1 64786U 25149A   25355.55290883  .00016128  00000+0  20086-3 0  9998",
        "tle_line2": "2 64786  41.4687 323.1886 0007788 108.2472 251.9215 15.59533817255305"
      },
      "geometry": {
        "type": "Point",
        "coordinates": [
          -94.39895207765692,
          -36.115517667737976
        ]
      }
    },
    {
      "type": "Feature",
      "properties": {
        "norad_id": 65077,
        "name": "CREW DRAGON 11",
        "group": "stations",
        "lat": -9.494785478130538,
        "lon": -75.08219799529145,
        "alt_km": 419.48352271415297,
        "timestamp": "2025-12-21T20:41:06.789650+00:00",
        "meta_object_name": "CREW DRAGON 11",
        "meta_object_id": "2025-166A",
        "meta_epoch": "2025-12-21T13:40:08.668128",
        "meta_mean_motion": 15.49703708,
        "meta_eccentricity": 0.00031656,
        "meta_inclination": 51.6324,
        "meta_ra_of_asc_node": 98.7522,
        "meta_arg_of_pericenter": 281.5679,
        "meta_mean_anomaly": 78.4955,
        "meta_ephemeris_type": 0,
        "meta_classification_type": "U",
        "meta_norad_cat_id": 65077,
        "meta_element_set_no": 999,
        "meta_rev_at_epoch": 214,
        "meta_bstar": 0.0001683656,
        "meta_mean_motion_dot": 9.066e-05,
        "meta_mean_motion_ddot": 0,
        "tle_line1": "1 65077U 25166A   25355.56954477  .00009066  00000+0  16837-3 0  9990",
        "tle_line2": "2 65077  51.6324  98.7522 0003165 281.5679  78.4955 15.49703708  2143"
      },
      "geometry": {
        "type": "Point",
        "coordinates": [
          -75.08219799529145,
          -9.494785478130538
        ]
      }
    },
    {
      "type": "Feature",
      "properties": {
        "norad_id": 65304,
        "name": "DRAGON CRS-33",
        "group": "stations",
        "lat": -9.49478603019737,
        "lon": -75.08219754232131,
        "alt_km": 419.48352274842,
        "timestamp": "2025-12-21T20:41:06.789661+00:00",
        "meta_object_name": "DRAGON CRS-33",
        "meta_object_id": "2025-186A",
        "meta_epoch": "2025-12-21T13:40:08.668128",
        "meta_mean_motion": 15.49703708,
        "meta_eccentricity": 0.00031656,
        "meta_inclination": 51.6324,
        "meta_ra_of_asc_node": 98.7522,
        "meta_arg_of_pericenter": 281.5679,
        "meta_mean_anomaly": 78.4955,
        "meta_ephemeris_type": 0,
        "meta_classification_type": "U",
        "meta_norad_cat_id": 65304,
        "meta_element_set_no": 999,
        "meta_rev_at_epoch": 11,
        "meta_bstar": 0.0001683656,
        "meta_mean_motion_dot": 9.066e-05,
        "meta_mean_motion_ddot": 0,
        "tle_line1": "1 65304U 25186A   25355.56954477  .00009066  00000+0  16837-3 0  9995",
        "tle_line2": "2 65304  51.6324  98.7522 0003165 281.5679  78.4955 15.49703708   111"
      },
      "geometry": {
        "type": "Point",
        "coordinates": [
          -75.08219754232131,
          -9.49478603019737
        ]
      }
    },
    {
      "type": "Feature",
      "properties": {
        "norad_id": 65586,
        "name": "PROGRESS-MS 32",
        "group": "stations",
        "lat": -9.494786481888307,
        "lon": -75.08219717170944,
        "alt_km": 419.483522776457,
        "timestamp": "2025-12-21T20:41:06.789670+00:00",
        "meta_object_name": "PROGRESS-MS 32",
        "meta_object_id": "2025-204A",
        "meta_epoch": "2025-12-21T13:40:08.668128",
        "meta_mean_motion": 15.49703708,
        "meta_eccentricity": 0.00031656,
        "meta_inclination": 51.6324,
        "meta_ra_of_asc_node": 98.7522,
        "meta_arg_of_pericenter": 281.5679,
        "meta_mean_anomaly": 78.4955,
        "meta_ephemeris_type": 0,
        "meta_classification_type": "U",
        "meta_norad_cat_id": 65586,
        "meta_element_set_no": 999,
        "meta_rev_at_epoch": 27,
        "meta_bstar": 0.0001683656,
        "meta_mean_motion_dot": 9.066e-05,
        "meta_mean_motion_ddot": 0,
        "tle_line1": "1 65586U 25204A   25355.56954477  .00009066  00000+0  16837-3 0  9998",
        "tle_line2": "2 65586  51.6324  98.7522 0003165 281.5679  78.4955 15.49703708   270"
      },
      "geometry": {
        "type": "Point",
        "coordinates": [
          -75.08219717170944,
          -9.494786481888307
        ]
      }
    },
    {
      "type": "Feature",
      "properties": {
        "norad_id": 65616,
        "name": "CYGNUS NG-23",
        "group": "stations",
        "lat": -9.494786933578943,
        "lon": -75.08219680109787,
        "alt_km": 419.4835228044949,
        "timestamp": "2025-12-21T20:41:06.789679+00:00",
        "meta_object_name": "CYGNUS NG-23",
        "meta_object_id": "2025-208A",
        "meta_epoch": "2025-12-21T13:40:08.668128",
        "meta_mean_motion": 15.49703708,
        "meta_eccentricity": 0.00031656,
        "meta_inclination": 51.6324,
        "meta_ra_of_asc_node": 98.7522,
        "meta_arg_of_pericenter": 281.5679,
        "meta_mean_anomaly": 78.4955,
        "meta_ephemeris_type": 0,
        "meta_classification_type": "U",
        "meta_norad_cat_id": 65616,
        "meta_element_set_no": 999,
        "meta_rev_at_epoch": 22,
        "meta_bstar": 0.0001683656,
        "meta_mean_motion_dot": 9.066e-05,
        "meta_mean_motion_ddot": 0,
        "tle_line1": "1 65616U 25208A   25355.56954477  .00009066  00000+0  16837-3 0  9996",
        "tle_line2": "2 65616  51.6324  98.7522 0003165 281.5679  78.4955 15.49703708   229"
      },
      "geometry": {
        "type": "Point",
        "coordinates": [
          -75.08219680109787,
          -9.494786933578943
        ]
      }
    },
    {
      "type": "Feature",
      "properties": {
        "norad_id": 65729,
        "name": "DRAGONFLY",
        "group": "stations",
        "lat": -38.96563355068512,
        "lon": -51.191662958316975,
        "alt_km": 349.9551596492738,
        "timestamp": "2025-12-21T20:41:06.789689+00:00",
        "meta_object_name": "DRAGONFLY",
        "meta_object_id": "1998-067XH",
        "meta_epoch": "2025-12-21T12:05:00.182112",
        "meta_mean_motion": 15.74757439,
        "meta_eccentricity": 0.00076429,
        "meta_inclination": 51.6248,
        "meta_ra_of_asc_node": 90.7906,
        "meta_arg_of_pericenter": 331.3887,
        "meta_mean_anomaly": 28.6692,
        "meta_ephemeris_type": 0,
        "meta_classification_type": "U",
        "meta_norad_cat_id": 65729,
        "meta_element_set_no": 999,
        "meta_rev_at_epoch": 1454,
        "meta_bstar": 0.0011143693,
        "meta_mean_motion_dot": 0.00170588,
        "meta_mean_motion_ddot": 0,
        "tle_line1": "1 65729U 98067XH  25355.50347433  .00170588  00000+0  11144-2 0  9999",
        "tle_line2": "2 65729  51.6248  90.7906 0007642 331.3887  28.6692 15.74757439 14549"
      },
      "geometry": {
        "type": "Point",
        "coordinates": [
          -51.191662958316975,
          -38.96563355068512
        ]
      }
    }
  ]
}